[{"OBJECT_NAME":"STARLINK-31827","OBJECT_ID":"2024-088V","EPOCH":"2026-03-09T11:15:39.159936","MEAN_MOTION":15.3018917,"ECCENTRICITY":0.00010532,"INCLINATION":53.1597,"RA_OF_ASC_NODE":141.2623,"ARG_OF_PERICENTER":99.001,"MEAN_ANOMALY":261.111,"EPHEMERIS_TYPE":0,"CLASSIFICATION_TYPE":"U","NORAD_CAT_ID":59727,"ELEMENT_SET_NO":999,"REV_AT_EPOCH":10376,"BSTAR":3.0487709e-5,"MEAN_MOTION_DOT":5.44e-6,"MEAN_MOTION_DDOT":0},{"OBJECT_NAME":"FENGYUN 1C DEB","OBJECT_ID":"1999-025CUF","EPOCH":"2026-03-09T01:34:38.628768","MEAN_MOTION":15.17132493,"ECCENTRICITY":0.01273829,"INCLINATION":98.8955,"RA_OF_ASC_NODE":293.2327,"ARG_OF_PERICENTER":89.1897,"MEAN_ANOMALY":272.3925,"EPHEMERIS_TYPE":0,"CLASSIFICATION_TYPE":"U","NORAD_CAT_ID":32185,"ELEMENT_SET_NO":999,"REV_AT_EPOCH":96318,"BSTAR":0.0036969643,"MEAN_MOTION_DOT":0.00091378,"MEAN_MOTION_DDOT":0}]
